[{"OBJECT_NAME":"SHIYAN-1 (SY-1)","OBJECT_ID":"2004-012A","EPOCH":"2026-03-09T17:40:34.066560","MEAN_MOTION":15.31043463,"ECCENTRICITY":0.00058726,"INCLINATION":97.8764,"RA_OF_ASC_NODE":140.5238,"ARG_OF_PERICENTER":23.6952,"MEAN_ANOMALY":336.4557,"EPHEMERIS_TYPE":0,"CLASSIFICATION_TYPE":"U","NORAD_CAT_ID":28220,"ELEMENT_SET_NO":999,"REV_AT_EPOCH":19586,"BSTAR":0.00054854449,"MEAN_MOTION_DOT":0.00016393,"MEAN_MOTION_DDOT":0},{"OBJECT_NAME":"STARLINK-34031","OBJECT_ID":"2025-095Y","EPOCH":"2026-03-09T08:11:45.127392","MEAN_MOTION":15.27590409,"ECCENTRICITY":0.00025574,"INCLINATION":43.0013,"RA_OF_ASC_NODE":178.2621,"ARG_OF_PERICENTER":285.2493,"MEAN_ANOMALY":74.8075,"EPHEMERIS_TYPE":0,"CLASSIFICATION_TYPE":"U","NORAD_CAT_ID":63912,"ELEMENT_SET_NO":999,"REV_AT_EPOCH":4772,"BSTAR":0.0013314427,"MEAN_MOTION_DOT":0.00036571,"MEAN_MOTION_DDOT":0}]
