SHIYAN-1 (SY-1)         
1 28220U 04012A   26068.73650539  .00016393  00000+0  54854-3 0  9991
2 28220  97.8764 140.5238 0005873  23.6952 336.4557 15.31043463195862
STARLINK-34031          
1 63912U 25095Y   26068.34149453  .00036571  00000+0  13314-2 0  9992
2 63912  43.0013 178.2621 0002557 285.2493  74.8075 15.27590409 47726
